1 45399U 20019AR  23146.92220081  .00008177  00000-0  56701-3 0  9997
2 45399  53.0541  25.5569 0001015 100.5356 259.5747 15.06411748176559
1 45399U 20019AR  23147.38662953  .00004110  00000-0  29463-3 0  9994
2 45399  53.0539  23.4742 0001038  77.1819 282.9286 15.06405660176626
1 45399U 20019AR  23147.85106663 -.00004385  00000-0 -27584-3 0  9995
2 45399  53.0542  21.3875 0001131  98.9958 261.1159 15.06382419176694
1 45399U 20019AR  23147.91741415 -.00002981  00000-0 -18140-3 0  9990
2 45399  53.0542  21.0898 0001132  97.4323 262.6795 15.06383662176702
1 45399U 20019AR  23148.84627842  .00018581  00000-0  12629-2 0  9996
2 45399  53.0545  16.9196 0001199 101.3795 258.7329 15.06403763176849
1 45399U 20019AR  23148.91262490  .00019575  00000-0  13291-2 0  9998
2 45399  53.0545  16.6223 0001119  98.9265 261.1851 15.06407218176850
1 45399U 20019AR  23149.64244560  .00010589  00000-0  72867-3 0  9998
2 45399  53.0545  13.3469 0000912  89.5396 270.5698 15.06401706176968
1 45399U 20019AR  23149.90783494  .00008034  00000-0  55764-3 0  9990
2 45399  53.0546  12.1556 0001116  94.7808 265.3308 15.06397381177005
1 45399U 20019AR  23149.90783494  .00008034  00000-0  55764-3 0  9990
2 45399  53.0546  12.1556 0001116  94.7808 265.3308 15.06397381177005
1 45399U 20019AR  23150.57130359  .00010251  00000-0  70600-3 0  9991
2 45399  53.0539   9.1771 0001017  91.3987 268.7118 15.06405167177102
1 45399U 20019AR  23150.90303378  .00011334  00000-0  77824-3 0  9999
2 45399  53.0535   7.6876 0000978  91.2636 268.8465 15.06415413177158
1 45399U 20019AR  23151.56649951 -.00002041  00000-0 -11812-3 0  9994
2 45399  53.0550   4.7148 0001700 114.5588 245.5578 15.06409649177256
1 45399U 20019AR  23151.76554547 -.00000612  00000-0 -22195-4 0  9991
2 45399  53.0538   3.8174 0000993  94.2813 265.8289 15.06396619177288
1 45399U 20019AR  23151.89823951  .00002090  00000-0  15917-3 0  9996
2 45399  53.0539   3.2204 0001177  98.8609 261.2514 15.06399343177306
1 45399U 20019AR  23152.29631320  .00004886  00000-0  34657-3 0  9995
2 45399  53.0544   1.4333 0001162  89.3073 270.8049 15.06413843177366
1 45399U 20019AR  23152.56169529  .00005278  00000-0  37272-3 0  9994
2 45399  53.0537   0.2402 0001038  94.4324 265.6784 15.06420547177402
1 45399U 20019AR  23152.56169529  .00005278  00000-0  37272-3 0  9994
2 45399  53.0537   0.2402 0001038  94.4324 265.6784 15.06420547177402
1 45399U 20019AR  23152.95976707  .00014966  00000-0  10204-2 0  9990
2 45399  53.0537 358.4536 0001171  90.0549 270.0574 15.06440329177460
1 45399U 20019AR  23153.55689764 -.00000345  00000-0 -42589-5 0  9993
2 45399  53.0533 355.7732 0002659  89.3124 270.8170 15.06404247177555
1 45399U 20019AR  23153.75594131 -.00003664  00000-0 -22731-3 0  9990
2 45399  53.0533 354.8780 0001321  83.3153 276.7986 15.06386752177582
1 45399U 20019AR  23153.75594131 -.00003664  00000-0 -22731-3 0  9990
2 45399  53.0533 354.8780 0001321  83.3153 276.7986 15.06386752177582
1 45399U 20019AR  23154.55211550  .00009899  00000-0  68273-3 0  9995
2 45399  53.0537 351.3059 0001309  58.7287 301.3830 15.06387676177700
1 45399U 20019AR  23154.81750157  .00011973  00000-0  82131-3 0  9990
2 45399  53.0539 350.1132 0001246  67.6724 292.4397 15.06399169177748
1 45399U 20019AR  23154.81750157  .00011973  00000-0  82131-3 0  9990
2 45399  53.0539 350.1132 0001246  67.6724 292.4397 15.06399169177748
1 45399U 20019AR  23155.81270776  .00004160  00000-0  29800-3 0  9999
2 45399  53.0542 345.6455 0001263  68.4283 291.6841 15.06397751177893
1 45399U 20019AR  23155.81270776  .00004160  00000-0  29800-3 0  9999
2 45399  53.0542 345.6455 0001263  68.4283 291.6841 15.06397751177893
1 45399U 20019AR  23156.54251447  .00009910  00000-0  68288-3 0  9995
2 45399  53.0532 342.3694 0001113  66.5409 293.5696 15.06419778178001
1 45399U 20019AR  23156.80789519  .00014542  00000-0  99220-3 0  9997
2 45399  53.0538 341.1779 0001193  68.5647 291.5469 15.06434072178046
1 45399U 20019AR  23156.80789519  .00014542  00000-0  99220-3 0  9997
2 45399  53.0538 341.1779 0001193  68.5647 291.5469 15.06434072178046
1 45399U 20019AR  23157.47136599  .00001112  00000-0  93537-4 0  9990
2 45399  53.0533 338.2001 0001314  66.3419 293.7708 15.06407174178148
1 45399U 20019AR  23157.67040714 -.00003938  00000-0 -24567-3 0  9991
2 45399  53.0535 337.3061 0001151  77.0908 283.0209 15.06394122178176
1 45399U 20019AR  23157.86944898  .00004943  00000-0  35050-3 0  9992
2 45399  53.0538 336.4128 0001252  81.9584 278.1547 15.06397964178200
1 45399U 20019AR  23158.46657126  .00017020  00000-0  11584-2 0  9999
2 45399  53.0537 333.7324 0001207  86.3699 273.7428 15.06410127178298
1 45399U 20019AR  23158.53291734  .00017656  00000-0  12008-2 0  9993
2 45399  53.0540 333.4347 0001217  86.3322 273.7806 15.06412752178306
1 45399U 20019AR  23158.86464542  .00022324  00000-0  15116-2 0  9999
2 45399  53.0535 331.9458 0001196  83.1641 276.9484 15.06430166178352
1 45399U 20019AR  23158.86464542  .00022324  00000-0  15116-2 0  9999
2 45399  53.0535 331.9458 0001196  83.1641 276.9484 15.06430166178352
1 45399U 20019AR  23160.05890004  .00021594  00000-0  14643-2 0  9991
2 45399  53.0535 326.5848 0001144  96.6140 263.4979 15.06396292178532
1 45399U 20019AR  23160.45697826  .00016610  00000-0  11310-2 0  9993
2 45399  53.0533 324.7971 0001100 103.0177 257.0935 15.06411574178590
1 45399U 20019AR  23160.72236154  .00018207  00000-0  12373-2 0  9990
2 45399  53.0534 323.6057 0001074 101.9086 258.2024 15.06422910178633
1 45399U 20019AR  23161.31948740  .00006182  00000-0  43349-3 0  9994
2 45399  53.0531 320.9253 0001360 102.4181 257.6960 15.06404865178729
1 45399U 20019AR  23161.51853026  .00000222  00000-0  33780-4 0  9996
2 45399  53.0542 320.0319 0001075  98.8510 261.2601 15.06391639178752
1 45399U 20019AR  23161.51853026  .00000222  00000-0  33780-4 0  9996
2 45399  53.0542 320.0319 0001075  98.8510 261.2601 15.06391639178752
1 45399U 20019AR  23161.65122741  .00017186  00000-0  11703-2 0  9990
2 45399  53.0539 319.4366 0001103  90.9418 269.1698 15.06385114178770
1 45399U 20019AR  23162.44738779  .00014479  00000-0  98862-3 0  9996
2 45399  53.0537 315.8628 0001204  93.4352 266.6774 15.06410671178893
1 45399U 20019AR  23162.44738779  .00014479  00000-0  98862-3 0  9996
2 45399  53.0537 315.8628 0001204  93.4352 266.6774 15.06410671178893
1 45399U 20019AR  23162.71276950  .00014409  00000-0  98367-3 0  9997
2 45399  53.0537 314.6706 0001213  93.5743 266.5385 15.06421645178937
1 45399U 20019AR  23163.11085203  .00006686  00000-0  46721-3 0  9996
2 45399  53.0539 312.8831 0001169 101.6691 258.4429 15.06409143178995
1 45399U 20019AR  23163.11085203  .00006686  00000-0  46721-3 0  9996
2 45399  53.0539 312.8831 0001169 101.6691 258.4429 15.06409143178995
1 45399U 20019AR  23163.70797930 -.00002938  00000-0 -17850-3 0  9997
2 45399  53.0538 310.2030 0001225  93.6306 266.4823 15.06390333179081
1 45399U 20019AR  23163.70797930 -.00002938  00000-0 -17850-3 0  9997
2 45399  53.0538 310.2030 0001225  93.6306 266.4823 15.06390333179081
1 45399U 20019AR  23164.17240669  .00016306  00000-0  11109-2 0  9993
2 45399  53.0535 308.1180 0001192 103.9429 256.1693 15.06405186179156
1 45399U 20019AR  23164.17240669  .00016306  00000-0  11109-2 0  9993
2 45399  53.0535 308.1180 0001192 103.9429 256.1693 15.06405186179156
1 45399U 20019AR  23164.83586435  .00021529  00000-0  14584-2 0  9993
2 45399  53.0531 305.1398 0001110  97.6088 262.5027 15.06436099179250
1 45399U 20019AR  23165.10125973  .00014948  00000-0  10201-2 0  9999
2 45399  53.0521 303.9430 0002859  76.8123 283.3184 15.06406656179297
1 45399U 20019AR  23165.49934168  .00005445  00000-0  38430-3 0  9992
2 45399  53.0528 302.1607 0001053  83.0155 277.0953 15.06383298179358
1 45399U 20019AR  23166.56089389  .00021635  00000-0  14663-2 0  9997
2 45399  53.0530 297.3948 0001079  74.1833 285.9275 15.06414318179517
1 45399U 20019AR  23166.62723995  .00021336  00000-0  14463-2 0  9998
2 45399  53.0531 297.0972 0001073  72.6932 287.4174 15.06416614179526
1 45399U 20019AR  23166.62723995  .00021336  00000-0  14463-2 0  9998
2 45399  53.0531 297.0972 0001073  72.6932 287.4174 15.06416614179526
1 45399U 20019AR  23167.09166683  .00011338  00000-0  77853-3 0  9999
2 45399  53.0518 295.0172 0001589  42.4541 317.6571 15.06414813179597
1 45399U 20019AR  23167.48974653  .00008532  00000-0  59080-3 0  9990
2 45399  53.0535 293.2245 0000975  87.0861 273.0239 15.06412563179658
1 45399U 20019AR  23167.62243790  .00015365  00000-0  10476-2 0  9994
2 45399  53.0536 292.6288 0000939  85.3131 274.7965 15.06419555179674
1 45399U 20019AR  23167.75513208  .00027532  00000-0  18591-2 0  9997
2 45399  53.0538 292.0336 0000972  84.7590 275.3510 15.06417780179696
1 45399U 20019AR  23168.48492639  .00017643  00000-0  11988-2 0  9997
2 45399  53.0536 288.7564 0001042  90.4118 269.6990 15.06448980179805
1 45399U 20019AR  23168.61761416  .00018430  00000-0  12510-2 0  9991
2 45399  53.0536 288.1617 0000993  86.1009 274.0094 15.06457051179829
1 45399U 20019AR  23168.61761416  .00018430  00000-0  12510-2 0  9991
2 45399  53.0536 288.1617 0000993  86.1009 274.0094 15.06457051179829
1 45399U 20019AR  23169.81187454 -.00002622  00000-0 -15735-3 0  9999
2 45399  53.0537 282.8005 0001055  89.2427 270.8683 15.06371913180002
1 45399U 20019AR  23169.81187454 -.00002622  00000-0 -15735-3 0  9999
2 45399  53.0537 282.8005 0001055  89.2427 270.8683 15.06371913180002
1 45399U 20019AR  23170.27631222  .00017827  00000-0  12133-2 0  9997
2 45399  53.0532 280.7157 0001347  93.2437 266.8706 15.06379269180072
1 45399U 20019AR  23170.60804756  .00020342  00000-0  13807-2 0  9993
2 45399  53.0532 279.2275 0001302  91.7708 268.3430 15.06396136180120
1 45399U 20019AR  23170.67439436  .00020562  00000-0  13953-2 0  9995
2 45399  53.0532 278.9298 0001297  91.1290 268.9848 15.06399114180133
1 45399U 20019AR  23171.27152392  .00004942  00000-0  35055-3 0  9997
2 45399  53.0531 276.2488 0001399  84.1330 275.9818 15.06385673180224
